KUIPER-00152            
1 65772U 25217L   25328.69419117  .00048190  00000+0  12468-2 0  9996
2 65772  51.8706 151.3008 0002565 215.3416 144.7401 15.38600402  9272
KUIPER-00153            
1 65773U 25217M   25328.70639069  .00007541  00000+0  46672-3 0  9999
2 65773  51.8751 155.8357 0011683 316.2041  43.8007 15.10678233  9217
KUIPER-00155            
1 65774U 25217N   25328.69131941  .00055473  00000+0  15193-2 0  9994
2 65774  51.8655 151.9978 0005702 299.3915  60.6502 15.36768197  9262
KUIPER-00156            
1 65775U 25217P   25328.70252311  .00037621  00000+0  98293-3 0  9990
2 65775  51.8703 151.3554 0002984 236.1890 123.8813 15.38410740  9279
KUIPER-00158            
1 65776U 25217Q   25328.83337963 -.00948479  00000+0 -52007-1 0  9997
2 65776  51.8753 152.9232 0004653 271.5667 124.1030 15.16496629  4495
KUIPER-00163            
1 65777U 25217R   25328.83337963 -.00224074  00000+0 -14559-1 0  9996
2 65777  51.8761 154.0714 0010764 328.4982 135.9902 15.08614788  3008
KUIPER-00165            
1 65778U 25217S   25328.78790421 -.00043325  00000+0 -11637-2 0  9996
2 65778  51.8683 151.1675 0003023 276.3669  83.6973 15.37284516  9286
KUIPER-00166            
1 65779U 25217T   25328.77957948  .00047266  00000+0  12474-2 0  9991
2 65779  51.8700 151.1206 0003424 249.3075 110.7545 15.37994618  9281
